STARLINK-31721          
1 59536U 24074C   26068.14238197 -.00000369  00000+0 -38775-5 0  9996
2 59536  43.0039 346.3569 0000975 263.6661  96.4079 15.27570564105931
BLUEBON                 
1 62688U 25009CH  26068.70316231  .00010452  00000+0  37313-3 0  9992
2 62688  97.4017 152.2033 0001193  43.3900 316.7434 15.29047253 63767
